{
  "type": "FeatureCollection",
  "features": [
    {
      "type": "Feature",
      "properties": {
        "norad_id": 30815,
        "name": "FENGYUN 1C DEB",
        "group": "fengyun-1c-debris",
        "lat": 70.50678592285121,
        "lon": -20.94379041031101,
        "alt_km": 646.8922021488615,
        "timestamp": "2025-12-02T23:34:15.795220+00:00",
        "meta_object_name": "FENGYUN 1C DEB",
        "meta_object_id": "1999-025AUZ",
        "meta_epoch": "2025-11-30T09:15:26.568288",
        "meta_mean_motion": 14.72583918,
        "meta_eccentricity": 0.00021035,
        "meta_inclination": 99.3008,
        "meta_ra_of_asc_node": 128.5096,
        "meta_arg_of_pericenter": 274.3036,
        "meta_mean_anomaly": 115.8666,
        "meta_ephemeris_type": 0,
        "meta_classification_type": "U",
        "meta_norad_cat_id": 30815,
        "meta_element_set_no": 999,
        "meta_rev_at_epoch": 97598,
        "meta_bstar": 0.0044563323,
        "meta_mean_motion_dot": 0.00028405,
        "meta_mean_motion_ddot": 0,
        "tle_line1": "1 30815U 99025AUZ 25334.38572417  .00028405  00000+0  44563-2 0  9998",
        "tle_line2": "2 30815  99.3008 128.5096 0002103 274.3036 115.8666 14.72583918975989"
      },
      "geometry": {
        "type": "Point",
        "coordinates": [
          -20.94379041031101,
          70.50678592285121
        ]
      }
    },
    {
      "type": "Feature",
      "properties": {
        "norad_id": 30816,
        "name": "FENGYUN 1C DEB",
        "group": "fengyun-1c-debris",
        "lat": -41.89626679812007,
        "lon": -140.67301963899925,
        "alt_km": 867.8576664819293,
        "timestamp": "2025-12-02T23:34:15.795230+00:00",
        "meta_object_name": "FENGYUN 1C DEB",
        "meta_object_id": "1999-025AVA",
        "meta_epoch": "2025-12-02T04:11:41.222688",
        "meta_mean_motion": 14.17897828,
        "meta_eccentricity": 0.00532115,
        "meta_inclination": 98.9158,
        "meta_ra_of_asc_node": 46.6125,
        "meta_arg_of_pericenter": 85.758,
        "meta_mean_anomaly": 337.5359,
        "meta_ephemeris_type": 0,
        "meta_classification_type": "U",
        "meta_norad_cat_id": 30816,
        "meta_element_set_no": 999,
        "meta_rev_at_epoch": 96244,
        "meta_bstar": 0.0018458712,
        "meta_mean_motion_dot": 3.783e-05,
        "meta_mean_motion_ddot": 0,
        "tle_line1": "1 30816U 99025AVA 25336.17478267  .00003783  00000+0  18459-2 0  9993",
        "tle_line2": "2 30816  98.9158  46.6125 0053211  85.7580 337.5359 14.17897828962444"
      },
      "geometry": {
        "type": "Point",
        "coordinates": [
          -140.67301963899925,
          -41.89626679812007
        ]
      }
    },
    {
      "type": "Feature",
      "properties": {
        "norad_id": 30817,
        "name": "FENGYUN 1C DEB",
        "group": "fengyun-1c-debris",
        "lat": -10.38551495541248,
        "lon": 145.9446654608338,
        "alt_km": 889.5907554383084,
        "timestamp": "2025-12-02T23:34:15.795240+00:00",
        "meta_object_name": "FENGYUN 1C DEB",
        "meta_object_id": "1999-025AVB",
        "meta_epoch": "2025-12-02T05:30:54.160128",
        "meta_mean_motion": 14.0070687,
        "meta_eccentricity": 0.0057376,
        "meta_inclination": 98.7859,
        "meta_ra_of_asc_node": 326.8455,
        "meta_arg_of_pericenter": 274.6945,
        "meta_mean_anomaly": 84.7669,
        "meta_ephemeris_type": 0,
        "meta_classification_type": "U",
        "meta_norad_cat_id": 30817,
        "meta_element_set_no": 999,
        "meta_rev_at_epoch": 95762,
        "meta_bstar": 0.00035922,
        "meta_mean_motion_dot": 5e-06,
        "meta_mean_motion_ddot": 0,
        "tle_line1": "1 30817U 99025AVB 25336.22979352  .00000500  00000+0  35922-3 0  9990",
        "tle_line2": "2 30817  98.7859 326.8455 0057376 274.6945  84.7669 14.00706870957627"
      },
      "geometry": {
        "type": "Point",
        "coordinates": [
          145.9446654608338,
          -10.38551495541248
        ]
      }
    },
    {
      "type": "Feature",
      "properties": {
        "norad_id": 30820,
        "name": "FENGYUN 1C DEB",
        "group": "fengyun-1c-debris",
        "lat": 51.140127384085766,
        "lon": 62.525464421130906,
        "alt_km": 851.8571365204825,
        "timestamp": "2025-12-02T23:34:15.795250+00:00",
        "meta_object_name": "FENGYUN 1C DEB",
        "meta_object_id": "1999-025AVE",
        "meta_epoch": "2025-12-01T05:13:35.130144",
        "meta_mean_motion": 14.21242439,
        "meta_eccentricity": 0.0051773,
        "meta_inclination": 98.6766,
        "meta_ra_of_asc_node": 71.7167,
        "meta_arg_of_pericenter": 219.591,
        "meta_mean_anomaly": 170.3692,
        "meta_ephemeris_type": 0,
        "meta_classification_type": "U",
        "meta_norad_cat_id": 30820,
        "meta_element_set_no": 999,
        "meta_rev_at_epoch": 96260,
        "meta_bstar": 0.002337,
        "meta_mean_motion_dot": 5.118e-05,
        "meta_mean_motion_ddot": 0,
        "tle_line1": "1 30820U 99025AVE 25335.21776771  .00005118  00000+0  23370-2 0  9995",
        "tle_line2": "2 30820  98.6766  71.7167 0051773 219.5910 170.3692 14.21242439962609"
      },
      "geometry": {
        "type": "Point",
        "coordinates": [
          62.525464421130906,
          51.140127384085766
        ]
      }
    },
    {
      "type": "Feature",
      "properties": {
        "norad_id": 30821,
        "name": "FENGYUN 1C DEB",
        "group": "fengyun-1c-debris",
        "lat": -9.912694858239178,
        "lon": -62.82314360855426,
        "alt_km": 687.8855269831656,
        "timestamp": "2025-12-02T23:34:15.795260+00:00",
        "meta_object_name": "FENGYUN 1C DEB",
        "meta_object_id": "1999-025AVF",
        "meta_epoch": "2025-12-01T08:43:29.259840",
        "meta_mean_motion": 14.49523426,
        "meta_eccentricity": 0.00862987,
        "meta_inclination": 99.1021,
        "meta_ra_of_asc_node": 117.0363,
        "meta_arg_of_pericenter": 240.0336,
        "meta_mean_anomaly": 149.0962,
        "meta_ephemeris_type": 0,
        "meta_classification_type": "U",
        "meta_norad_cat_id": 30821,
        "meta_element_set_no": 999,
        "meta_rev_at_epoch": 98624,
        "meta_bstar": 0.0010654422,
        "meta_mean_motion_dot": 4.23e-05,
        "meta_mean_motion_ddot": 0,
        "tle_line1": "1 30821U 99025AVF 25335.36353310  .00004230  00000+0  10654-2 0  9997",
        "tle_line2": "2 30821  99.1021 117.0363 0086298 240.0336 149.0962 14.49523426986240"
      },
      "geometry": {
        "type": "Point",
        "coordinates": [
          -62.82314360855426,
          -9.912694858239178
        ]
      }
    },
    {
      "type": "Feature",
      "properties": {
        "norad_id": 30822,
        "name": "FENGYUN 1C DEB",
        "group": "fengyun-1c-debris",
        "lat": 8.81631270858323,
        "lon": 3.9411896583130774,
        "alt_km": 826.346137061998,
        "timestamp": "2025-12-02T23:34:15.795269+00:00",
        "meta_object_name": "FENGYUN 1C DEB",
        "meta_object_id": "1999-025AVG",
        "meta_epoch": "2025-12-02T08:19:08.482944",
        "meta_mean_motion": 14.11320405,
        "meta_eccentricity": 0.0073296,
        "meta_inclination": 98.7367,
        "meta_ra_of_asc_node": 4.6894,
        "meta_arg_of_pericenter": 315.198,
        "meta_mean_anomaly": 66.1225,
        "meta_ephemeris_type": 0,
        "meta_classification_type": "U",
        "meta_norad_cat_id": 30822,
        "meta_element_set_no": 999,
        "meta_rev_at_epoch": 96555,
        "meta_bstar": 0.00043357,
        "meta_mean_motion_dot": 7.6e-06,
        "meta_mean_motion_ddot": 0,
        "tle_line1": "1 30822U 99025AVG 25336.34662596  .00000760  00000+0  43357-3 0  9997",
        "tle_line2": "2 30822  98.7367   4.6894 0073296 315.1980  66.1225 14.11320405965555"
      },
      "geometry": {
        "type": "Point",
        "coordinates": [
          3.9411896583130774,
          8.81631270858323
        ]
      }
    },
    {
      "type": "Feature",
      "properties": {
        "norad_id": 30823,
        "name": "FENGYUN 1C DEB",
        "group": "fengyun-1c-debris",
        "lat": 50.0098522996986,
        "lon": 107.76585330385346,
        "alt_km": 832.2888381936864,
        "timestamp": "2025-12-02T23:34:15.795280+00:00",
        "meta_object_name": "FENGYUN 1C DEB",
        "meta_object_id": "1999-025AVH",
        "meta_epoch": "2025-12-02T08:14:22.099776",
        "meta_mean_motion": 14.02529207,
        "meta_eccentricity": 0.0133279,
        "meta_inclination": 98.7601,
        "meta_ra_of_asc_node": 117.7439,
        "meta_arg_of_pericenter": 113.5287,
        "meta_mean_anomaly": 315.0259,
        "meta_ephemeris_type": 0,
        "meta_classification_type": "U",
        "meta_norad_cat_id": 30823,
        "meta_element_set_no": 999,
        "meta_rev_at_epoch": 95888,
        "meta_bstar": 0.00073987,
        "meta_mean_motion_dot": 1.191e-05,
        "meta_mean_motion_ddot": 0,
        "tle_line1": "1 30823U 99025AVH 25336.34331134  .00001191  00000+0  73987-3 0  9990",
        "tle_line2": "2 30823  98.7601 117.7439 0133279 113.5287 315.0259 14.02529207958888"
      },
      "geometry": {
        "type": "Point",
        "coordinates": [
          107.76585330385346,
          50.0098522996986
        ]
      }
    }
  ]
}